{"type": "FeatureCollection", "features": [ {"type": "Feature", "properties": {"norad_id": 66383, "name": "STARLINK-35690", "group": "last-30-days", "lat": -20.308558077311567, "lon": 147.777050532184, "alt_km": 439.9260563575972, "timestamp": "2025-12-02T17:49:10.798655+00:00", "meta": {"OBJECT_NAME": "STARLINK-35690", "OBJECT_ID": "2025-257D", "EPOCH": "2025-12-02T12:00:05.998752", "MEAN_MOTION": 15.44398464, "ECCENTRICITY": 0.0001309, "INCLINATION": 53.1588, "RA_OF_ASC_NODE": 312.8178, "ARG_OF_PERICENTER": 99.1263, "MEAN_ANOMALY": 198.396, "EPHEMERIS_TYPE": 0, "CLASSIFICATION_TYPE": "U", "NORAD_CAT_ID": 66383, "ELEMENT_SET_NO": 999, "REV_AT_EPOCH": 485, "BSTAR": -0.04937, "MEAN_MOTION_DOT": -0.02059059, "MEAN_MOTION_DDOT": 0}, "tle": {"line1": "1 66383U 25257D   25336.50006943 -.02059059  00000+0 -49370-1 0  9998", "line2": "2 66383  53.1588 312.8178 0001309  99.1263 198.3960 15.44398464  4852"}}, "geometry": {"type": "Point", "coordinates": [147.777050532184, -20.308558077311567]}}, {"type": "Feature", "properties": {"norad_id": 66384, "name": "STARLINK-35662", "group": "last-30-days", "lat": -21.733845214172348, "lon": 149.05507460106176, "alt_km": 440.24135574673437, "timestamp": "2025-12-02T17:49:10.798666+00:00", "meta": {"OBJECT_NAME": "STARLINK-35662", "OBJECT_ID": "2025-257E", "EPOCH": "2025-12-02T12:00:05.998752", "MEAN_MOTION": 15.44385809, "ECCENTRICITY": 0.0001247, "INCLINATION": 53.1586, "RA_OF_ASC_NODE": 312.8148, "ARG_OF_PERICENTER": 85.8248, "MEAN_ANOMALY": 213.5706, "EPHEMERIS_TYPE": 0, "CLASSIFICATION_TYPE": "U", "NORAD_CAT_ID": 66384, "ELEMENT_SET_NO": 999, "REV_AT_EPOCH": 485, "BSTAR": -0.049228, "MEAN_MOTION_DOT": -0.02052952, "MEAN_MOTION_DDOT": 0}, "tle": {"line1": "1 66384U 25257E   25336.50006943 -.02052952  00000+0 -49228-1 0  9996", "line2": "2 66384  53.1586 312.8148 0001247  85.8248 213.5706 15.44385809  4851"}}, "geometry": {"type": "Point", "coordinates": [149.05507460106176, -21.733845214172348]}}, {"type": "Feature", "properties": {"norad_id": 66385, "name": "STARLINK-35659", "group": "last-30-days", "lat": -5.642640441724003, "lon": 135.95398625541853, "alt_km": 446.62387578210837, "timestamp": "2025-12-02T17:49:10.798676+00:00", "meta": {"OBJECT_NAME": "STARLINK-35659", "OBJECT_ID": "2025-257F", "EPOCH": "2025-12-02T12:00:05.998752", "MEAN_MOTION": 15.42073087, "ECCENTRICITY": 0.0001444, "INCLINATION": 53.1586, "RA_OF_ASC_NODE": 312.8512, "ARG_OF_PERICENTER": 95.852, "MEAN_ANOMALY": 185.2676, "EPHEMERIS_TYPE": 0, "CLASSIFICATION_TYPE": "U", "NORAD_CAT_ID": 66385, "ELEMENT_SET_NO": 999, "REV_AT_EPOCH": 485, "BSTAR": -0.078615, "MEAN_MOTION_DOT": -0.03007988, "MEAN_MOTION_DDOT": 0}, "tle": {"line1": "1 66385U 25257F   25336.50006943 -.03007988  00000+0 -78615-1 0  9999", "line2": "2 66385  53.1586 312.8512 0001444  95.8520 185.2676 15.42073087  4851"}}, "geometry": {"type": "Point", "coordinates": [135.95398625541853, -5.642640441724003]}}, {"type": "Feature", "properties": {"norad_id": 66386, "name": "STARLINK-35651", "group": "last-30-days", "lat": -30.8976990517567, "lon": 158.29904541366764, "alt_km": 432.50194409544656, "timestamp": "2025-12-02T17:49:10.798686+00:00", "meta": {"OBJECT_NAME": "STARLINK-35651", "OBJECT_ID": "2025-257G", "EPOCH": "2025-12-02T12:00:05.998752", "MEAN_MOTION": 15.4723379, "ECCENTRICITY": 0.0001164, "INCLINATION": 53.1583, "RA_OF_ASC_NODE": 312.7946, "ARG_OF_PERICENTER": 101.6966, "MEAN_ANOMALY": 207.5819, "EPHEMERIS_TYPE": 0, "CLASSIFICATION_TYPE": "U", "NORAD_CAT_ID": 66386, "ELEMENT_SET_NO": 999, "REV_AT_EPOCH": 485, "BSTAR": -0.044804, "MEAN_MOTION_DOT": -0.02061235, "MEAN_MOTION_DDOT": 0}, "tle": {"line1": "1 66386U 25257G   25336.50006943 -.02061235  00000+0 -44804-1 0  9997", "line2": "2 66386  53.1583 312.7946 0001164 101.6966 207.5819 15.47233790  4859"}}, "geometry": {"type": "Point", "coordinates": [158.29904541366764, -30.8976990517567]}}, {"type": "Feature", "properties": {"norad_id": 66387, "name": "STARLINK-35661", "group": "last-30-days", "lat": -32.23816859546722, "lon": 159.85593825204566, "alt_km": 432.6507270496395, "timestamp": "2025-12-02T17:49:10.798698+00:00", "meta": {"OBJECT_NAME": "STARLINK-35661", "OBJECT_ID": "2025-257H", "EPOCH": "2025-12-02T12:00:05.998752", "MEAN_MOTION": 15.47226103, "ECCENTRICITY": 9.22e-05, "INCLINATION": 53.1582, "RA_OF_ASC_NODE": 312.7912, "ARG_OF_PERICENTER": 88.6417, "MEAN_ANOMALY": 222.5394, "EPHEMERIS_TYPE": 0, "CLASSIFICATION_TYPE": "U", "NORAD_CAT_ID": 66387, "ELEMENT_SET_NO": 999, "REV_AT_EPOCH": 485, "BSTAR": -0.045036, "MEAN_MOTION_DOT": -0.02070079, "MEAN_MOTION_DDOT": 0}, "tle": {"line1": "1 66387U 25257H   25336.50006943 -.02070079  00000+0 -45036-1 0  9992", "line2": "2 66387  53.1582 312.7912 0000922  88.6417 222.5394 15.47226103  4853"}}, "geometry": {"type": "Point", "coordinates": [159.85593825204566, -32.23816859546722]}}, {"type": "Feature", "properties": {"norad_id": 66388, "name": "STARLINK-35647", "group": "last-30-days", "lat": -36.29389614368276, "lon": 165.0346239662394, "alt_km": 424.7646692326316, "timestamp": "2025-12-02T17:49:10.798708+00:00", "meta": {"OBJECT_NAME": "STARLINK-35647", "OBJECT_ID": "2025-257J", "EPOCH": "2025-12-02T12:00:05.998752", "MEAN_MOTION": 15.49732773, "ECCENTRICITY": 8.69e-05, "INCLINATION": 53.1587, "RA_OF_ASC_NODE": 312.784, "ARG_OF_PERICENTER": 87.6881, "MEAN_ANOMALY": 227.0983, "EPHEMERIS_TYPE": 0, "CLASSIFICATION_TYPE": "U", "NORAD_CAT_ID": 66388, "ELEMENT_SET_NO": 999, "REV_AT_EPOCH": 485, "BSTAR": -0.031414, "MEAN_MOTION_DOT": -0.01595759, "MEAN_MOTION_DDOT": 0}, "tle": {"line1": "1 66388U 25257J   25336.50006943 -.01595759  00000+0 -31414-1 0  9994", "line2": "2 66388  53.1587 312.7840 0000869  87.6881 227.0983 15.49732773  4854"}}, "geometry": {"type": "Point", "coordinates": [165.0346239662394, -36.29389614368276]}}, {"type": "Feature", "properties": {"norad_id": 66389, "name": "STARLINK-35694", "group": "last-30-days", "lat": -37.691751912342454, "lon": 167.02145529421733, "alt_km": 423.92868349395303, "timestamp": "2025-12-02T17:49:10.798718+00:00", "meta": {"OBJECT_NAME": "STARLINK-35694", "OBJECT_ID": "2025-257K", "EPOCH": "2025-12-02T12:00:05.998752", "MEAN_MOTION": 15.49459165, "ECCENTRICITY": 0.0001575, "INCLINATION": 53.1583, "RA_OF_ASC_NODE": 312.7788, "ARG_OF_PERICENTER": 79.9255, "MEAN_ANOMALY": 236.9087, "EPHEMERIS_TYPE": 0, "CLASSIFICATION_TYPE": "U", "NORAD_CAT_ID": 66389, "ELEMENT_SET_NO": 999, "REV_AT_EPOCH": 485, "BSTAR": -0.0051941, "MEAN_MOTION_DOT": -0.00280699, "MEAN_MOTION_DDOT": 0}, "tle": {"line1": "1 66389U 25257K   25336.50006943 -.00280699  00000+0 -51941-2 0  9996", "line2": "2 66389  53.1583 312.7788 0001575  79.9255 236.9087 15.49459165  4851"}}, "geometry": {"type": "Point", "coordinates": [167.02145529421733, -37.691751912342454]}}, {"type": "Feature", "properties": {"norad_id": 66390, "name": "STARLINK-35665", "group": "last-30-days", "lat": -52.74051854165182, "lon": -148.1685564101813, "alt_km": 424.5341856369523, "timestamp": "2025-12-02T17:49:10.798731+00:00", "meta": {"OBJECT_NAME": "STARLINK-35665", "OBJECT_ID": "2025-257L", "EPOCH": "2025-12-02T12:00:05.998752", "MEAN_MOTION": 15.49308341, "ECCENTRICITY": 0.0001362, "INCLINATION": 53.1583, "RA_OF_ASC_NODE": 312.7073, "ARG_OF_PERICENTER": 85.2336, "MEAN_ANOMALY": 266.0463, "EPHEMERIS_TYPE": 0, "CLASSIFICATION_TYPE": "U", "NORAD_CAT_ID": 66390, "ELEMENT_SET_NO": 999, "REV_AT_EPOCH": 494, "BSTAR": -0.00058266, "MEAN_MOTION_DOT": -0.00032718, "MEAN_MOTION_DDOT": 0}, "tle": {"line1": "1 66390U 25257L   25336.50006943 -.00032718  00000+0 -58266-3 0  9993", "line2": "2 66390  53.1583 312.7073 0001362  85.2336 266.0463 15.49308341  4945"}}, "geometry": {"type": "Point", "coordinates": [-148.1685564101813, -52.74051854165182]}}, {"type": "Feature", "properties": {"norad_id": 66391, "name": "STARLINK-35656", "group": "last-30-days", "lat": -49.47413066627493, "lon": -109.79910098350058, "alt_km": 453.0040140171395, "timestamp": "2025-12-02T17:49:10.798741+00:00", "meta": {"OBJECT_NAME": "STARLINK-35656", "OBJECT_ID": "2025-257M", "EPOCH": "2025-12-02T12:00:05.998752", "MEAN_MOTION": 15.39579185, "ECCENTRICITY": 0.00017, "INCLINATION": 53.1586, "RA_OF_ASC_NODE": 312.6317, "ARG_OF_PERICENTER": 77.5181, "MEAN_ANOMALY": 306.3549, "EPHEMERIS_TYPE": 0, "CLASSIFICATION_TYPE": "U", "NORAD_CAT_ID": 66391, "ELEMENT_SET_NO": 999, "REV_AT_EPOCH": 494, "BSTAR": 0.0013709, "MEAN_MOTION_DOT": 0.00054756, "MEAN_MOTION_DDOT": 0}, "tle": {"line1": "1 66391U 25257M   25336.50006943  .00054756  00000+0  13709-2 0  9990", "line2": "2 66391  53.1586 312.6317 0001700  77.5181 306.3549 15.39579185  4945"}}, "geometry": {"type": "Point", "coordinates": [-109.79910098350058, -49.47413066627493]}}, {"type": "Feature", "properties": {"norad_id": 66392, "name": "STARLINK-35671", "group": "last-30-days", "lat": -39.857964103523486, "lon": 170.3658612707536, "alt_km": 426.2236451277022, "timestamp": "2025-12-02T17:49:10.798752+00:00", "meta": {"OBJECT_NAME": "STARLINK-35671", "OBJECT_ID": "2025-257N", "EPOCH": "2025-12-02T12:00:05.998752", "MEAN_MOTION": 15.49550285, "ECCENTRICITY": 8.19e-05, "INCLINATION": 53.1583, "RA_OF_ASC_NODE": 312.7715, "ARG_OF_PERICENTER": 90.0845, "MEAN_ANOMALY": 230.4886, "EPHEMERIS_TYPE": 0, "CLASSIFICATION_TYPE": "U", "NORAD_CAT_ID": 66392, "ELEMENT_SET_NO": 999, "REV_AT_EPOCH": 485, "BSTAR": -0.040913, "MEAN_MOTION_DOT": -0.02044461, "MEAN_MOTION_DDOT": 0}, "tle": {"line1": "1 66392U 25257N   25336.50006943 -.02044461  00000+0 -40913-1 0  9993", "line2": "2 66392  53.1583 312.7715 0000819  90.0845 230.4886 15.49550285  4855"}}, "geometry": {"type": "Point", "coordinates": [170.3658612707536, -39.857964103523486]}}]}